[{"OBJECT_NAME":"AQUA","OBJECT_ID":"2002-022A","EPOCH":"2026-03-09T23:03:04.467168","MEAN_MOTION":14.6197796,"ECCENTRICITY":5.597e-5,"INCLINATION":98.4175,"RA_OF_ASC_NODE":36.3303,"ARG_OF_PERICENTER":81.6608,"MEAN_ANOMALY":350.7427,"EPHEMERIS_TYPE":0,"CLASSIFICATION_TYPE":"U","NORAD_CAT_ID":27424,"ELEMENT_SET_NO":999,"REV_AT_EPOCH":26877,"BSTAR":0.00028652441,"MEAN_MOTION_DOT":1.387e-5,"MEAN_MOTION_DDOT":0},{"OBJECT_NAME":"FENGYUN 1C DEB","OBJECT_ID":"1999-025EFP","EPOCH":"2026-03-08T14:49:26.957568","MEAN_MOTION":14.63533918,"ECCENTRICITY":0.00133902,"INCLINATION":98.8589,"RA_OF_ASC_NODE":213.6494,"ARG_OF_PERICENTER":228.2004,"MEAN_ANOMALY":131.8052,"EPHEMERIS_TYPE":0,"CLASSIFICATION_TYPE":"U","NORAD_CAT_ID":37079,"ELEMENT_SET_NO":999,"REV_AT_EPOCH":65870,"BSTAR":0.00567637,"MEAN_MOTION_DOT":0.0002955,"MEAN_MOTION_DDOT":0}]
